STARLINK-31987          
1 60017U 24111B   24308.12501146  .00090952  00000+0  26745-2 0  9990
2 60017  53.1583 199.5437 0001126  59.7859 300.3255 15.34353456 23723
STARLINK-31984          
1 60018U 24111C   24308.11568012  .00111278  00000+0  32682-2 0  9997
2 60018  53.1588 199.4831 0000694 124.1332 235.9736 15.34282762 23614
STARLINK-31986          
1 60019U 24111D   24308.42741414  .00028434  00000+0  85312-3 0  9991
2 60019  53.1603 197.8743 0001024  77.4049 282.7068 15.34264716 23820
STARLINK-31883          
1 60020U 24111E   24307.99971656  .00065159  00000+0  19325-2 0  9992
2 60020  53.1573 200.1848 0000548  70.1523 289.9539 15.34243139 23692
STARLINK-31967          
1 60021U 24111F   24308.42306740  .00003680  00000+0  12055-3 0  9993
2 60021  53.1616 197.8461 0000517  99.0334 261.0727 15.34247701 23824
STARLINK-31982          
1 60022U 24111G   24308.40921556  .00006967  00000+0  21835-3 0  9997
2 60022  53.1591 198.4743 0000997  92.8815 267.2301 15.34221287 23810
STARLINK-31992          
1 60023U 24111H   24308.43207809  .00005535  00000+0  17575-3 0  9995
2 60023  53.1595 197.9008 0001510 101.7675 258.3497 15.34233993 23824
STARLINK-31990          
1 60024U 24111J   24308.00437776  .00001845  00000+0  66079-4 0  9991
2 60024  53.1601 200.2136 0000731  75.8014 284.3070 15.34211331 23744
STARLINK-31864          
1 60025U 24111K   24308.42883978  .00024094  00000+0  82253-3 0  9999
2 60025  53.1607 197.8064 0001108  88.9015 271.2112 15.30218202 23817
STARLINK-31939          
1 60026U 24111L   24308.12067534  .00159792  00000+0  46577-2 0  9991
2 60026  53.1587 199.5147 0000753  55.2039 304.9034 15.34284246 23760
STARLINK-32012          
1 60027U 24111M   24307.98736658  .00036900  00000+0  12514-2 0  9994
2 60027  53.1584 199.3902 0001041  84.2371 275.8748 15.30210408 23759
STARLINK-32008          
1 60028U 24111N   24308.12221587  .00010777  00000+0  37524-3 0  9995
2 60028  53.1581 198.8074 0000856  75.3276 284.7819 15.30219520 23773
STARLINK-32006          
1 60029U 24111P   24308.07383814  .00001949  00000+0  69137-4 0  9999
2 60029  53.1601 199.9342 0000564 102.9135 257.1931 15.34224792 23752
STARLINK-32011          
1 60030U 24111Q   24308.41352812  .00020141  00000+0  60797-3 0  9990
2 60030  53.1594 198.5004 0001545  87.4774 272.6405 15.34278235 23806
STARLINK-31878          
1 60031U 24111R   24307.98444196 -.00005451  00000+0 -15645-3 0  9990
2 60031  53.1287 148.1975 0001325  65.1267 294.9872 15.33165315 24225
