[
	{
		"OBJECT_NAME": "STARLINK-31987",
		"OBJECT_ID": "2024-111B",
		"EPOCH": "2024-11-03T03:00:00.990144",
		"MEAN_MOTION": 15.34353456,
		"ECCENTRICITY": 0.0001126,
		"INCLINATION": 53.1583,
		"RA_OF_ASC_NODE": 199.5437,
		"ARG_OF_PERICENTER": 59.7859,
		"MEAN_ANOMALY": 300.3255,
		"EPHEMERIS_TYPE": 0,
		"CLASSIFICATION_TYPE": "U",
		"NORAD_CAT_ID": 60017,
		"ELEMENT_SET_NO": 999,
		"REV_AT_EPOCH": 2372,
		"BSTAR": 0.0026745,
		"MEAN_MOTION_DOT": 0.00090952,
		"MEAN_MOTION_DDOT": 0
	},
	{
		"OBJECT_NAME": "STARLINK-31984",
		"OBJECT_ID": "2024-111C",
		"EPOCH": "2024-11-03T02:46:34.762368",
		"MEAN_MOTION": 15.34282762,
		"ECCENTRICITY": 6.94e-5,
		"INCLINATION": 53.1588,
		"RA_OF_ASC_NODE": 199.4831,
		"ARG_OF_PERICENTER": 124.1332,
		"MEAN_ANOMALY": 235.9736,
		"EPHEMERIS_TYPE": 0,
		"CLASSIFICATION_TYPE": "U",
		"NORAD_CAT_ID": 60018,
		"ELEMENT_SET_NO": 999,
		"REV_AT_EPOCH": 2361,
		"BSTAR": 0.0032682,
		"MEAN_MOTION_DOT": 0.00111278,
		"MEAN_MOTION_DDOT": 0
	},
	{
		"OBJECT_NAME": "STARLINK-31986",
		"OBJECT_ID": "2024-111D",
		"EPOCH": "2024-11-03T10:15:28.581696",
		"MEAN_MOTION": 15.34264716,
		"ECCENTRICITY": 0.0001024,
		"INCLINATION": 53.1603,
		"RA_OF_ASC_NODE": 197.8743,
		"ARG_OF_PERICENTER": 77.4049,
		"MEAN_ANOMALY": 282.7068,
		"EPHEMERIS_TYPE": 0,
		"CLASSIFICATION_TYPE": "U",
		"NORAD_CAT_ID": 60019,
		"ELEMENT_SET_NO": 999,
		"REV_AT_EPOCH": 2382,
		"BSTAR": 0.00085312,
		"MEAN_MOTION_DOT": 0.00028434,
		"MEAN_MOTION_DDOT": 0
	},
	{
		"OBJECT_NAME": "STARLINK-31883",
		"OBJECT_ID": "2024-111E",
		"EPOCH": "2024-11-02T23:59:35.510784",
		"MEAN_MOTION": 15.34243139,
		"ECCENTRICITY": 5.48e-5,
		"INCLINATION": 53.1573,
		"RA_OF_ASC_NODE": 200.1848,
		"ARG_OF_PERICENTER": 70.1523,
		"MEAN_ANOMALY": 289.9539,
		"EPHEMERIS_TYPE": 0,
		"CLASSIFICATION_TYPE": "U",
		"NORAD_CAT_ID": 60020,
		"ELEMENT_SET_NO": 999,
		"REV_AT_EPOCH": 2369,
		"BSTAR": 0.0019325,
		"MEAN_MOTION_DOT": 0.00065159,
		"MEAN_MOTION_DDOT": 0
	},
	{
		"OBJECT_NAME": "STARLINK-31967",
		"OBJECT_ID": "2024-111F",
		"EPOCH": "2024-11-03T10:09:13.023360",
		"MEAN_MOTION": 15.34247701,
		"ECCENTRICITY": 5.17e-5,
		"INCLINATION": 53.1616,
		"RA_OF_ASC_NODE": 197.8461,
		"ARG_OF_PERICENTER": 99.0334,
		"MEAN_ANOMALY": 261.0727,
		"EPHEMERIS_TYPE": 0,
		"CLASSIFICATION_TYPE": "U",
		"NORAD_CAT_ID": 60021,
		"ELEMENT_SET_NO": 999,
		"REV_AT_EPOCH": 2382,
		"BSTAR": 0.00012055,
		"MEAN_MOTION_DOT": 3.68e-5,
		"MEAN_MOTION_DDOT": 0
	},
	{
		"OBJECT_NAME": "STARLINK-31982",
		"OBJECT_ID": "2024-111G",
		"EPOCH": "2024-11-03T09:49:16.224384",
		"MEAN_MOTION": 15.34221287,
		"ECCENTRICITY": 9.97e-5,
		"INCLINATION": 53.1591,
		"RA_OF_ASC_NODE": 198.4743,
		"ARG_OF_PERICENTER": 92.8815,
		"MEAN_ANOMALY": 267.2301,
		"EPHEMERIS_TYPE": 0,
		"CLASSIFICATION_TYPE": "U",
		"NORAD_CAT_ID": 60022,
		"ELEMENT_SET_NO": 999,
		"REV_AT_EPOCH": 2381,
		"BSTAR": 0.00021835,
		"MEAN_MOTION_DOT": 6.967e-5,
		"MEAN_MOTION_DDOT": 0
	},
	{
		"OBJECT_NAME": "STARLINK-31992",
		"OBJECT_ID": "2024-111H",
		"EPOCH": "2024-11-03T10:22:11.546976",
		"MEAN_MOTION": 15.34233993,
		"ECCENTRICITY": 0.000151,
		"INCLINATION": 53.1595,
		"RA_OF_ASC_NODE": 197.9008,
		"ARG_OF_PERICENTER": 101.7675,
		"MEAN_ANOMALY": 258.3497,
		"EPHEMERIS_TYPE": 0,
		"CLASSIFICATION_TYPE": "U",
		"NORAD_CAT_ID": 60023,
		"ELEMENT_SET_NO": 999,
		"REV_AT_EPOCH": 2382,
		"BSTAR": 0.00017575,
		"MEAN_MOTION_DOT": 5.535e-5,
		"MEAN_MOTION_DDOT": 0
	},
	{
		"OBJECT_NAME": "STARLINK-31990",
		"OBJECT_ID": "2024-111J",
		"EPOCH": "2024-11-03T00:06:18.238464",
		"MEAN_MOTION": 15.34211331,
		"ECCENTRICITY": 7.31e-5,
		"INCLINATION": 53.1601,
		"RA_OF_ASC_NODE": 200.2136,
		"ARG_OF_PERICENTER": 75.8014,
		"MEAN_ANOMALY": 284.307,
		"EPHEMERIS_TYPE": 0,
		"CLASSIFICATION_TYPE": "U",
		"NORAD_CAT_ID": 60024,
		"ELEMENT_SET_NO": 999,
		"REV_AT_EPOCH": 2374,
		"BSTAR": 6.6079e-5,
		"MEAN_MOTION_DOT": 1.845e-5,
		"MEAN_MOTION_DDOT": 0
	},
	{
		"OBJECT_NAME": "STARLINK-31864",
		"OBJECT_ID": "2024-111K",
		"EPOCH": "2024-11-03T10:17:31.756992",
		"MEAN_MOTION": 15.30218202,
		"ECCENTRICITY": 0.0001108,
		"INCLINATION": 53.1607,
		"RA_OF_ASC_NODE": 197.8064,
		"ARG_OF_PERICENTER": 88.9015,
		"MEAN_ANOMALY": 271.2112,
		"EPHEMERIS_TYPE": 0,
		"CLASSIFICATION_TYPE": "U",
		"NORAD_CAT_ID": 60025,
		"ELEMENT_SET_NO": 999,
		"REV_AT_EPOCH": 2381,
		"BSTAR": 0.00082253,
		"MEAN_MOTION_DOT": 0.00024094,
		"MEAN_MOTION_DDOT": 0
	},
	{
		"OBJECT_NAME": "STARLINK-31939",
		"OBJECT_ID": "2024-111L",
		"EPOCH": "2024-11-03T02:53:46.349376",
		"MEAN_MOTION": 15.34284246,
		"ECCENTRICITY": 7.53e-5,
		"INCLINATION": 53.1587,
		"RA_OF_ASC_NODE": 199.5147,
		"ARG_OF_PERICENTER": 55.2039,
		"MEAN_ANOMALY": 304.9034,
		"EPHEMERIS_TYPE": 0,
		"CLASSIFICATION_TYPE": "U",
		"NORAD_CAT_ID": 60026,
		"ELEMENT_SET_NO": 999,
		"REV_AT_EPOCH": 2376,
		"BSTAR": 0.0046577,
		"MEAN_MOTION_DOT": 0.00159792,
		"MEAN_MOTION_DDOT": 0
	},
	{
		"OBJECT_NAME": "STARLINK-32012",
		"OBJECT_ID": "2024-111M",
		"EPOCH": "2024-11-02T23:41:48.472512",
		"MEAN_MOTION": 15.30210408,
		"ECCENTRICITY": 0.0001041,
		"INCLINATION": 53.1584,
		"RA_OF_ASC_NODE": 199.3902,
		"ARG_OF_PERICENTER": 84.2371,
		"MEAN_ANOMALY": 275.8748,
		"EPHEMERIS_TYPE": 0,
		"CLASSIFICATION_TYPE": "U",
		"NORAD_CAT_ID": 60027,
		"ELEMENT_SET_NO": 999,
		"REV_AT_EPOCH": 2375,
		"BSTAR": 0.0012514,
		"MEAN_MOTION_DOT": 0.000369,
		"MEAN_MOTION_DDOT": 0
	},
	{
		"OBJECT_NAME": "STARLINK-32008",
		"OBJECT_ID": "2024-111N",
		"EPOCH": "2024-11-03T02:55:59.451168",
		"MEAN_MOTION": 15.3021952,
		"ECCENTRICITY": 8.56e-5,
		"INCLINATION": 53.1581,
		"RA_OF_ASC_NODE": 198.8074,
		"ARG_OF_PERICENTER": 75.3276,
		"MEAN_ANOMALY": 284.7819,
		"EPHEMERIS_TYPE": 0,
		"CLASSIFICATION_TYPE": "U",
		"NORAD_CAT_ID": 60028,
		"ELEMENT_SET_NO": 999,
		"REV_AT_EPOCH": 2377,
		"BSTAR": 0.00037524,
		"MEAN_MOTION_DOT": 0.00010777,
		"MEAN_MOTION_DDOT": 0
	},
	{
		"OBJECT_NAME": "STARLINK-32006",
		"OBJECT_ID": "2024-111P",
		"EPOCH": "2024-11-03T01:46:19.615296",
		"MEAN_MOTION": 15.34224792,
		"ECCENTRICITY": 5.64e-5,
		"INCLINATION": 53.1601,
		"RA_OF_ASC_NODE": 199.9342,
		"ARG_OF_PERICENTER": 102.9135,
		"MEAN_ANOMALY": 257.1931,
		"EPHEMERIS_TYPE": 0,
		"CLASSIFICATION_TYPE": "U",
		"NORAD_CAT_ID": 60029,
		"ELEMENT_SET_NO": 999,
		"REV_AT_EPOCH": 2375,
		"BSTAR": 6.9137e-5,
		"MEAN_MOTION_DOT": 1.949e-5,
		"MEAN_MOTION_DDOT": 0
	},
	{
		"OBJECT_NAME": "STARLINK-32011",
		"OBJECT_ID": "2024-111Q",
		"EPOCH": "2024-11-03T09:55:28.829568",
		"MEAN_MOTION": 15.34278235,
		"ECCENTRICITY": 0.0001545,
		"INCLINATION": 53.1594,
		"RA_OF_ASC_NODE": 198.5004,
		"ARG_OF_PERICENTER": 87.4774,
		"MEAN_ANOMALY": 272.6405,
		"EPHEMERIS_TYPE": 0,
		"CLASSIFICATION_TYPE": "U",
		"NORAD_CAT_ID": 60030,
		"ELEMENT_SET_NO": 999,
		"REV_AT_EPOCH": 2380,
		"BSTAR": 0.00060797,
		"MEAN_MOTION_DOT": 0.00020141,
		"MEAN_MOTION_DDOT": 0
	},
	{
		"OBJECT_NAME": "STARLINK-31878",
		"OBJECT_ID": "2024-111R",
		"EPOCH": "2024-11-02T23:37:35.785344",
		"MEAN_MOTION": 15.33165315,
		"ECCENTRICITY": 0.0001325,
		"INCLINATION": 53.1287,
		"RA_OF_ASC_NODE": 148.1975,
		"ARG_OF_PERICENTER": 65.1267,
		"MEAN_ANOMALY": 294.9872,
		"EPHEMERIS_TYPE": 0,
		"CLASSIFICATION_TYPE": "U",
		"NORAD_CAT_ID": 60031,
		"ELEMENT_SET_NO": 999,
		"REV_AT_EPOCH": 2422,
		"BSTAR": -0.00015645,
		"MEAN_MOTION_DOT": -5.451e-5,
		"MEAN_MOTION_DDOT": 0
	}
]
